OBJECT_NAME,OBJECT_ID,EPOCH,MEAN_MOTION,ECCENTRICITY,INCLINATION,RA_OF_ASC_NODE,ARG_OF_PERICENTER,MEAN_ANOMALY,EPHEMERIS_TYPE,CLASSIFICATION_TYPE,NORAD_CAT_ID,ELEMENT_SET_NO,REV_AT_EPOCH,BSTAR,MEAN_MOTION_DOT,MEAN_MOTION_DDOT
IRIDIUM 154,2018-061F,2026-06-09T06:40:18.426720,14.34217890,.00020629,86.3969,60.1138,87.1126,273.0306,0,U,43574,999,41227,.12436548E-4,.55E-6,0
IRIDIUM 163,2018-061G,2026-06-09T06:12:53.578080,14.34215614,.00023165,86.3966,60.0372,83.2933,276.8526,0,U,43575,999,41224,.60711597E-4,.19E-5,0
IRIDIUM 156,2018-061H,2026-06-09T05:36:22.149216,14.34219891,.00021033,86.3965,60.0550,80.5832,279.5602,0,U,43576,999,41223,.6980776E-4,.215E-5,0
IRIDIUM 164,2018-061J,2026-06-09T05:08:58.422048,14.34217506,.00020742,86.3967,60.1032,88.2150,271.9283,0,U,43577,999,41227,.27393566E-4,.96E-6,0
IRIDIUM 159,2018-061K,2026-06-09T04:23:18.386016,14.34216862,.00023218,86.3967,60.0535,84.5659,275.5802,0,U,43578,999,41223,.65615831E-4,.204E-5,0
IRIDIUM 180,2019-002A,2026-06-09T06:03:02.905344,14.34217943,.00022379,86.3972,356.9157,89.0586,271.0866,0,U,43922,999,38785,.7672716E-5,.41E-6,0
IRIDIUM 176,2019-002B,2026-06-09T01:41:59.538336,14.72256003,.00022103,86.6094,356.9359,91.0287,269.1183,0,U,43923,999,39805,.10459803E-3,.684E-5,0
IRIDIUM 168,2019-002C,2026-06-09T05:53:54.979008,14.34217653,.00021759,86.3975,356.9954,89.0407,271.1038,0,U,43924,999,38783,.4880258E-5,.33E-6,0
IRIDIUM 173,2019-002D,2026-06-09T02:14:42.858240,14.34217322,.00022421,86.3972,356.9482,86.4051,273.7401,0,U,43925,999,38779,.13891024E-4,.59E-6,0
IRIDIUM 169,2019-002E,2026-06-09T04:24:37.597536,14.38610826,.00021378,86.4233,28.5398,70.4497,289.6932,0,U,43926,999,38907,.71982382E-4,.24E-5,0
IRIDIUM 172,2019-002F,2026-06-09T07:06:58.805280,14.34218606,.00022751,86.3972,356.8713,89.1058,271.0399,0,U,43927,999,38783,.28453981E-4,.99E-6,0
IRIDIUM 175,2019-002G,2026-06-09T07:18:39.225024,14.43608359,.00014768,86.4506,293.8165,211.0797,149.0317,0,U,43928,999,39784,.83323058E-4,.302E-5,0
IRIDIUM 171,2019-002H,2026-06-09T01:38:10.821120,14.34218825,.00020073,86.3981,357.2719,86.6983,273.4443,0,U,43929,999,38779,.53290727E-4,.169E-5,0
IRIDIUM 170,2019-002J,2026-06-09T01:50:53.779776,14.72256440,.00023394,86.6092,356.9360,87.4821,272.6664,0,U,43930,999,39806,.10516969E-3,.688E-5,0
IRIDIUM 167,2019-002K,2026-06-09T01:29:02.898240,14.34217599,.00018568,86.3973,356.9915,86.3650,273.7759,0,U,43931,999,38779,.1196916E-5,.23E-6,0
IRIDIUM 181,2023-068S,2026-06-09T06:32:01.408992,14.43310387,.00022917,86.4503,60.0991,90.7067,269.4396,0,U,56726,999,16129,.774144E-4,.281E-5,0
IRIDIUM 177,2023-068T,2026-06-09T05:02:54.663360,14.80225607,.00024376,86.1960,332.5810,85.9089,274.2411,0,U,56727,999,16518,.13042016E-3,.1017E-4,0
IRIDIUM 174,2023-068U,2026-06-09T06:26:43.326528,14.72252833,.00025736,86.6099,357.0025,85.3777,274.7734,0,U,56728,999,16485,.11269213E-3,.735E-5,0
IRIDIUM 178,2023-068V,2026-06-09T01:32:33.907776,14.80219471,.00026696,86.6545,28.7551,89.1211,271.0317,0,U,56729,999,16516,.11128606E-3,.872E-5,0
IRIDIUM 179,2023-068W,2026-06-09T04:39:32.036256,14.80236700,.0002397,86.6786,37.6567,87.3606,272.7890,0,U,56730,999,16518,.11300737E-3,.885E-5,0
