IRIDIUM 154             
1 43574U 18061F   26160.27799105  .00000055  00000+0  12437-4 0  9994
2 43574  86.3969  60.1138 0002062  87.1126 273.0306 14.34217890412276
IRIDIUM 163             
1 43575U 18061G   26160.25895345  .00000190  00000+0  60712-4 0  9995
2 43575  86.3966  60.0372 0002316  83.2933 276.8526 14.34215614412242
IRIDIUM 156             
1 43576U 18061H   26160.23358969  .00000215  00000+0  69808-4 0  9993
2 43576  86.3965  60.0550 0002103  80.5832 279.5602 14.34219891412237
IRIDIUM 164             
1 43577U 18061J   26160.21456507  .00000096  00000+0  27394-4 0  9990
2 43577  86.3967  60.1032 0002074  88.2150 271.9283 14.34217506412277
IRIDIUM 159             
1 43578U 18061K   26160.18285169  .00000204  00000+0  65616-4 0  9991
2 43578  86.3967  60.0535 0002321  84.5659 275.5802 14.34216862412230
IRIDIUM 180             
1 43922U 19002A   26160.25211696  .00000041  00000+0  76727-5 0  9997
2 43922  86.3972 356.9157 0002237  89.0586 271.0866 14.34217943387852
IRIDIUM 176             
1 43923U 19002B   26160.07082799  .00000684  00000+0  10460-3 0  9991
2 43923  86.6094 356.9359 0002210  91.0287 269.1183 14.72256003398053
IRIDIUM 168             
1 43924U 19002C   26160.24577522  .00000033  00000+0  48803-5 0  9996
2 43924  86.3975 356.9954 0002175  89.0407 271.1038 14.34217653387833
IRIDIUM 173             
1 43925U 19002D   26160.09355160  .00000059  00000+0  13891-4 0  9998
2 43925  86.3972 356.9482 0002242  86.4051 273.7401 14.34217322387798
IRIDIUM 169             
1 43926U 19002E   26160.18376849  .00000240  00000+0  71982-4 0  9993
2 43926  86.4233  28.5398 0002137  70.4497 289.6932 14.38610826389076
IRIDIUM 172             
1 43927U 19002F   26160.29651395  .00000099  00000+0  28454-4 0  9996
2 43927  86.3972 356.8713 0002275  89.1058 271.0399 14.34218606387837
IRIDIUM 175             
1 43928U 19002G   26160.30462066  .00000302  00000+0  83323-4 0  9997
2 43928  86.4506 293.8165 0001476 211.0797 149.0317 14.43608359397845
IRIDIUM 171             
1 43929U 19002H   26160.06818080  .00000169  00000+0  53291-4 0  9994
2 43929  86.3981 357.2719 0002007  86.6983 273.4443 14.34218825387796
IRIDIUM 170             
1 43930U 19002J   26160.07701134  .00000688  00000+0  10517-3 0  9997
2 43930  86.6092 356.9360 0002339  87.4821 272.6664 14.72256440398065
IRIDIUM 167             
1 43931U 19002K   26160.06183910  .00000023  00000+0  11969-5 0  9990
2 43931  86.3973 356.9915 0001856  86.3650 273.7759 14.34217599387793
IRIDIUM 181             
1 56726U 23068S   26160.27223853  .00000281  00000+0  77414-4 0  9999
2 56726  86.4503  60.0991 0002291  90.7067 269.4396 14.43310387161294
IRIDIUM 177             
1 56727U 23068T   26160.21035490  .00001017  00000+0  13042-3 0  9996
2 56727  86.1960 332.5810 0002437  85.9089 274.2411 14.80225607165183
IRIDIUM 174             
1 56728U 23068U   26160.26855702  .00000735  00000+0  11269-3 0  9993
2 56728  86.6099 357.0025 0002573  85.3777 274.7734 14.72252833164859
IRIDIUM 178             
1 56729U 23068V   26160.06428134  .00000872  00000+0  11129-3 0  9994
2 56729  86.6545  28.7551 0002669  89.1211 271.0317 14.80219471165165
IRIDIUM 179             
1 56730U 23068W   26160.19412079  .00000885  00000+0  11301-3 0  9997
2 56730  86.6786  37.6567 0002397  87.3606 272.7890 14.80236700165186
